<?xml version="1.0" encoding="UTF-8"?>
<ndm xmlns:xsi="http://www.w3.org/2001/XMLSchema-instance" xsi:noNamespaceSchemaLocation="https://sanaregistry.org/r/ndmxml_unqualified/ndmxml-2.0.0-master-2.0.xsd">
<omm id="CCSDS_OMM_VERS" version="2.0">
<header><CREATION_DATE/><ORIGINATOR/></header><body><segment><metadata><OBJECT_NAME>ONEWEB-0414</OBJECT_NAME><OBJECT_ID>2021-132Y</OBJECT_ID><CENTER_NAME>EARTH</CENTER_NAME><REF_FRAME>TEME</REF_FRAME><TIME_SYSTEM>UTC</TIME_SYSTEM><MEAN_ELEMENT_THEORY>SGP4</MEAN_ELEMENT_THEORY></metadata><data><meanElements><EPOCH>2025-05-20T19:31:00.402240</EPOCH><MEAN_MOTION>13.18684792</MEAN_MOTION><ECCENTRICITY>.0001893</ECCENTRICITY><INCLINATION>87.9153</INCLINATION><RA_OF_ASC_NODE>53.4174</RA_OF_ASC_NODE><ARG_OF_PERICENTER>71.8051</ARG_OF_PERICENTER><MEAN_ANOMALY>288.3287</MEAN_ANOMALY></meanElements><tleParameters><EPHEMERIS_TYPE>0</EPHEMERIS_TYPE><CLASSIFICATION_TYPE>U</CLASSIFICATION_TYPE><NORAD_CAT_ID>50491</NORAD_CAT_ID><ELEMENT_SET_NO>999</ELEMENT_SET_NO><REV_AT_EPOCH>16991</REV_AT_EPOCH><BSTAR>.17175E-3</BSTAR><MEAN_MOTION_DOT>.81E-6</MEAN_MOTION_DOT><MEAN_MOTION_DDOT>0</MEAN_MOTION_DDOT></tleParameters></data></segment></body></omm>
<omm id="CCSDS_OMM_VERS" version="2.0">
<header><CREATION_DATE/><ORIGINATOR/></header><body><segment><metadata><OBJECT_NAME>ONEWEB-0417</OBJECT_NAME><OBJECT_ID>2021-132Z</OBJECT_ID><CENTER_NAME>EARTH</CENTER_NAME><REF_FRAME>TEME</REF_FRAME><TIME_SYSTEM>UTC</TIME_SYSTEM><MEAN_ELEMENT_THEORY>SGP4</MEAN_ELEMENT_THEORY></metadata><data><meanElements><EPOCH>2025-05-20T17:53:08.111328</EPOCH><MEAN_MOTION>13.18685343</MEAN_MOTION><ECCENTRICITY>.0002125</ECCENTRICITY><INCLINATION>87.9162</INCLINATION><RA_OF_ASC_NODE>53.4574</RA_OF_ASC_NODE><ARG_OF_PERICENTER>76.9486</ARG_OF_PERICENTER><MEAN_ANOMALY>283.1883</MEAN_ANOMALY></meanElements><tleParameters><EPHEMERIS_TYPE>0</EPHEMERIS_TYPE><CLASSIFICATION_TYPE>U</CLASSIFICATION_TYPE><NORAD_CAT_ID>50492</NORAD_CAT_ID><ELEMENT_SET_NO>999</ELEMENT_SET_NO><REV_AT_EPOCH>16988</REV_AT_EPOCH><BSTAR>-.42498E-4</BSTAR><MEAN_MOTION_DOT>-.4E-7</MEAN_MOTION_DOT><MEAN_MOTION_DDOT>0</MEAN_MOTION_DDOT></tleParameters></data></segment></body></omm>
<omm id="CCSDS_OMM_VERS" version="2.0">
<header><CREATION_DATE/><ORIGINATOR/></header><body><segment><metadata><OBJECT_NAME>ONEWEB-0418</OBJECT_NAME><OBJECT_ID>2021-132AA</OBJECT_ID><CENTER_NAME>EARTH</CENTER_NAME><REF_FRAME>TEME</REF_FRAME><TIME_SYSTEM>UTC</TIME_SYSTEM><MEAN_ELEMENT_THEORY>SGP4</MEAN_ELEMENT_THEORY></metadata><data><meanElements><EPOCH>2025-05-20T18:06:35.997120</EPOCH><MEAN_MOTION>13.18685813</MEAN_MOTION><ECCENTRICITY>.0002296</ECCENTRICITY><INCLINATION>87.9157</INCLINATION><RA_OF_ASC_NODE>53.4454</RA_OF_ASC_NODE><ARG_OF_PERICENTER>75.2506</ARG_OF_PERICENTER><MEAN_ANOMALY>284.8880</MEAN_ANOMALY></meanElements><tleParameters><EPHEMERIS_TYPE>0</EPHEMERIS_TYPE><CLASSIFICATION_TYPE>U</CLASSIFICATION_TYPE><NORAD_CAT_ID>50493</NORAD_CAT_ID><ELEMENT_SET_NO>999</ELEMENT_SET_NO><REV_AT_EPOCH>16994</REV_AT_EPOCH><BSTAR>.98055E-6</BSTAR><MEAN_MOTION_DOT>.13E-6</MEAN_MOTION_DOT><MEAN_MOTION_DDOT>0</MEAN_MOTION_DDOT></tleParameters></data></segment></body></omm>
<omm id="CCSDS_OMM_VERS" version="2.0">
<header><CREATION_DATE/><ORIGINATOR/></header><body><segment><metadata><OBJECT_NAME>ONEWEB-0419</OBJECT_NAME><OBJECT_ID>2021-132AB</OBJECT_ID><CENTER_NAME>EARTH</CENTER_NAME><REF_FRAME>TEME</REF_FRAME><TIME_SYSTEM>UTC</TIME_SYSTEM><MEAN_ELEMENT_THEORY>SGP4</MEAN_ELEMENT_THEORY></metadata><data><meanElements><EPOCH>2025-05-20T18:31:49.592928</EPOCH><MEAN_MOTION>13.18685321</MEAN_MOTION><ECCENTRICITY>.0002258</ECCENTRICITY><INCLINATION>87.9152</INCLINATION><RA_OF_ASC_NODE>53.4463</RA_OF_ASC_NODE><ARG_OF_PERICENTER>83.1937</ARG_OF_PERICENTER><MEAN_ANOMALY>276.9452</MEAN_ANOMALY></meanElements><tleParameters><EPHEMERIS_TYPE>0</EPHEMERIS_TYPE><CLASSIFICATION_TYPE>U</CLASSIFICATION_TYPE><NORAD_CAT_ID>50494</NORAD_CAT_ID><ELEMENT_SET_NO>999</ELEMENT_SET_NO><REV_AT_EPOCH>16986</REV_AT_EPOCH><BSTAR>-.2047E-3</BSTAR><MEAN_MOTION_DOT>-.68E-6</MEAN_MOTION_DOT><MEAN_MOTION_DDOT>0</MEAN_MOTION_DDOT></tleParameters></data></segment></body></omm>
<omm id="CCSDS_OMM_VERS" version="2.0">
<header><CREATION_DATE/><ORIGINATOR/></header><body><segment><metadata><OBJECT_NAME>ONEWEB-0420</OBJECT_NAME><OBJECT_ID>2021-132AC</OBJECT_ID><CENTER_NAME>EARTH</CENTER_NAME><REF_FRAME>TEME</REF_FRAME><TIME_SYSTEM>UTC</TIME_SYSTEM><MEAN_ELEMENT_THEORY>SGP4</MEAN_ELEMENT_THEORY></metadata><data><meanElements><EPOCH>2025-05-20T19:33:16.981632</EPOCH><MEAN_MOTION>13.18684560</MEAN_MOTION><ECCENTRICITY>.0001702</ECCENTRICITY><INCLINATION>87.9151</INCLINATION><RA_OF_ASC_NODE>53.4473</RA_OF_ASC_NODE><ARG_OF_PERICENTER>82.0696</ARG_OF_PERICENTER><MEAN_ANOMALY>278.0629</MEAN_ANOMALY></meanElements><tleParameters><EPHEMERIS_TYPE>0</EPHEMERIS_TYPE><CLASSIFICATION_TYPE>U</CLASSIFICATION_TYPE><NORAD_CAT_ID>50495</NORAD_CAT_ID><ELEMENT_SET_NO>999</ELEMENT_SET_NO><REV_AT_EPOCH>16986</REV_AT_EPOCH><BSTAR>.86488E-4</BSTAR><MEAN_MOTION_DOT>.47E-6</MEAN_MOTION_DOT><MEAN_MOTION_DDOT>0</MEAN_MOTION_DDOT></tleParameters></data></segment></body></omm>
<omm id="CCSDS_OMM_VERS" version="2.0">
<header><CREATION_DATE/><ORIGINATOR/></header><body><segment><metadata><OBJECT_NAME>ONEWEB-0421</OBJECT_NAME><OBJECT_ID>2021-132AD</OBJECT_ID><CENTER_NAME>EARTH</CENTER_NAME><REF_FRAME>TEME</REF_FRAME><TIME_SYSTEM>UTC</TIME_SYSTEM><MEAN_ELEMENT_THEORY>SGP4</MEAN_ELEMENT_THEORY></metadata><data><meanElements><EPOCH>2025-05-20T19:24:10.850688</EPOCH><MEAN_MOTION>13.18684709</MEAN_MOTION><ECCENTRICITY>.0001856</ECCENTRICITY><INCLINATION>87.9156</INCLINATION><RA_OF_ASC_NODE>53.4394</RA_OF_ASC_NODE><ARG_OF_PERICENTER>69.5440</ARG_OF_PERICENTER><MEAN_ANOMALY>290.5891</MEAN_ANOMALY></meanElements><tleParameters><EPHEMERIS_TYPE>0</EPHEMERIS_TYPE><CLASSIFICATION_TYPE>U</CLASSIFICATION_TYPE><NORAD_CAT_ID>50496</NORAD_CAT_ID><ELEMENT_SET_NO>999</ELEMENT_SET_NO><REV_AT_EPOCH>16990</REV_AT_EPOCH><BSTAR>-.18418E-3</BSTAR><MEAN_MOTION_DOT>-.6E-6</MEAN_MOTION_DOT><MEAN_MOTION_DDOT>0</MEAN_MOTION_DDOT></tleParameters></data></segment></body></omm>
<omm id="CCSDS_OMM_VERS" version="2.0">
<header><CREATION_DATE/><ORIGINATOR/></header><body><segment><metadata><OBJECT_NAME>ONEWEB-0424</OBJECT_NAME><OBJECT_ID>2021-132AE</OBJECT_ID><CENTER_NAME>EARTH</CENTER_NAME><REF_FRAME>TEME</REF_FRAME><TIME_SYSTEM>UTC</TIME_SYSTEM><MEAN_ELEMENT_THEORY>SGP4</MEAN_ELEMENT_THEORY></metadata><data><meanElements><EPOCH>2025-05-20T18:25:00.146784</EPOCH><MEAN_MOTION>13.18685244</MEAN_MOTION><ECCENTRICITY>.000223</ECCENTRICITY><INCLINATION>87.9159</INCLINATION><RA_OF_ASC_NODE>53.4386</RA_OF_ASC_NODE><ARG_OF_PERICENTER>88.4453</ARG_OF_PERICENTER><MEAN_ANOMALY>271.6935</MEAN_ANOMALY></meanElements><tleParameters><EPHEMERIS_TYPE>0</EPHEMERIS_TYPE><CLASSIFICATION_TYPE>U</CLASSIFICATION_TYPE><NORAD_CAT_ID>50497</NORAD_CAT_ID><ELEMENT_SET_NO>999</ELEMENT_SET_NO><REV_AT_EPOCH>16992</REV_AT_EPOCH><BSTAR>.28467E-3</BSTAR><MEAN_MOTION_DOT>.125E-5</MEAN_MOTION_DOT><MEAN_MOTION_DDOT>0</MEAN_MOTION_DDOT></tleParameters></data></segment></body></omm>
<omm id="CCSDS_OMM_VERS" version="2.0">
<header><CREATION_DATE/><ORIGINATOR/></header><body><segment><metadata><OBJECT_NAME>ONEWEB-0426</OBJECT_NAME><OBJECT_ID>2021-132AF</OBJECT_ID><CENTER_NAME>EARTH</CENTER_NAME><REF_FRAME>TEME</REF_FRAME><TIME_SYSTEM>UTC</TIME_SYSTEM><MEAN_ELEMENT_THEORY>SGP4</MEAN_ELEMENT_THEORY></metadata><data><meanElements><EPOCH>2025-05-20T19:19:37.630560</EPOCH><MEAN_MOTION>13.18683890</MEAN_MOTION><ECCENTRICITY>.0002305</ECCENTRICITY><INCLINATION>87.9146</INCLINATION><RA_OF_ASC_NODE>53.4340</RA_OF_ASC_NODE><ARG_OF_PERICENTER>60.7428</ARG_OF_PERICENTER><MEAN_ANOMALY>299.3935</MEAN_ANOMALY></meanElements><tleParameters><EPHEMERIS_TYPE>0</EPHEMERIS_TYPE><CLASSIFICATION_TYPE>U</CLASSIFICATION_TYPE><NORAD_CAT_ID>50498</NORAD_CAT_ID><ELEMENT_SET_NO>999</ELEMENT_SET_NO><REV_AT_EPOCH>16987</REV_AT_EPOCH><BSTAR>-.24311E-3</BSTAR><MEAN_MOTION_DOT>-.83E-6</MEAN_MOTION_DOT><MEAN_MOTION_DDOT>0</MEAN_MOTION_DDOT></tleParameters></data></segment></body></omm>

</ndm>
