ONEWEB-0414             
1 50491U 21132Y   25140.81319910  .00000081  00000+0  17175-3 0  9994
2 50491  87.9153  53.4174 0001893  71.8051 288.3287 13.18684792169914
ONEWEB-0417             
1 50492U 21132Z   25140.74523277 -.00000004  00000+0 -42498-4 0  9994
2 50492  87.9162  53.4574 0002125  76.9486 283.1883 13.18685343169880
ONEWEB-0418             
1 50493U 21132AA  25140.75458330  .00000013  00000+0  98055-6 0  9993
2 50493  87.9157  53.4454 0002296  75.2506 284.8880 13.18685813169940
ONEWEB-0419             
1 50494U 21132AB  25140.77210177 -.00000068  00000+0 -20470-3 0  9996
2 50494  87.9152  53.4463 0002258  83.1937 276.9452 13.18685321169862
ONEWEB-0420             
1 50495U 21132AC  25140.81477988  .00000047  00000+0  86488-4 0  9994
2 50495  87.9151  53.4473 0001702  82.0696 278.0629 13.18684560169869
ONEWEB-0421             
1 50496U 21132AD  25140.80845892 -.00000060  00000+0 -18418-3 0  9991
2 50496  87.9156  53.4394 0001856  69.5440 290.5891 13.18684709169904
ONEWEB-0424             
1 50497U 21132AE  25140.76736281  .00000125  00000+0  28467-3 0  9993
2 50497  87.9159  53.4386 0002230  88.4453 271.6935 13.18685244169926
ONEWEB-0426             
1 50498U 21132AF  25140.80529665 -.00000083  00000+0 -24311-3 0  9994
2 50498  87.9146  53.4340 0002305  60.7428 299.3935 13.18683890169877
